{
  "norad_id": 68910,
  "name": "STARLINK-37493",
  "history": [
    {
      "epoch": "2026-05-04T18:00:02.000160Z",
      "apogee_km": 276.8259011339096,
      "perigee_km": 274.880274432242,
      "latitude_deg": -60.60623912700677,
      "longitude_deg": -6.007904454270982,
      "height_km": 300.09465640380597,
      "semi_major_axis_km": 6653.990087783075,
      "eccentricity": 0.0001462,
      "inclination_deg": 97.2866,
      "raan_deg": 319.6793,
      "arg_perigee_deg": 92.8774,
      "mean_anomaly_deg": 148.33,
      "mean_motion_rev_day": 15.99482665
    }
  ]
}