{"generatedAt":"2026-05-05T08:19:47.084492Z","satellites":[{"name":"STARLINK-37493","tle1":"1 68910U 26097R   26124.75002315 -.02143181  13517-2 -44034-2 0  9994","tle2":"2 68910  97.2866 319.6793 0001462  92.8774 148.3300 15.99482665  1928"}]}